start=new Date('%Y-%m-57T00:00:00.000Z').valueOf();
sats=[{"SEMIMAJOR_AXIS":"6925.375","REF_FRAME":"TEME","RA_OF_ASC_NODE":"253.9668","PERIOD":"95.593","GP_ID":"183187153","CENTER_NAME":"EARTH","ECCENTRICITY":"0.00008470","MEAN_MOTION":"15.06391531","TIME_SYSTEM":"UTC","CLASSIFICATION_TYPE":"U","COUNTRY_CODE":"US","EPOCH":"2021-08-21T12:09:20.316960","TLE_LINE1":"1 46370U 20062AX  21233.50648515 -.00000914  00000-0 -42495-4 0  9999","OBJECT_TYPE":"PAYLOAD","SITE":"AFETR","MEAN_MOTION_DDOT":"0.0000000000000","MEAN_ANOMALY":"305.5512","EPHEMERIS_TYPE":"0","TLE_LINE2":"2 46370  53.0541 253.9668 0000847  54.5556 305.5512 15.06391531 54215","APOAPSIS":"547.826","FILE":"3100831","OBJECT_ID":"2020-062AX","PERIAPSIS":"546.653","ARG_OF_PERICENTER":"54.5556","OBJECT_NAME":"STARLINK-1670","BSTAR":"-0.00004249500000","MEAN_ELEMENT_THEORY":"SGP4","DECAY_DATE":null,"LAUNCH_DATE":"2020-09-03","REV_AT_EPOCH":"5421","RCS_SIZE":"LARGE","MEAN_MOTION_DOT":"-0.00000914","ELEMENT_SET_NO":"999","NORAD_CAT_ID":"46370","INCLINATION":"53.0541"},{"EPHEMERIS_TYPE":"0","TLE_LINE2":"2 46371  53.0546 254.3036 0000386  34.4668 325.6346 15.06388839 54208","MEAN_ANOMALY":"325.6346","PERIAPSIS":"546.980","FILE":"3100831","APOAPSIS":"547.515","OBJECT_ID":"2020-062AY","EPOCH":"2021-08-21T10:23:11.224320","TLE_LINE1":"1 46371U 20062AY  21233.43276880  .00000481  00000-0  51154-4 0  9993","COUNTRY_CODE":"US","MEAN_MOTION_DDOT":"0.0000000000000","OBJECT_TYPE":"PAYLOAD","SITE":"AFETR","GP_ID":"183185901","CLASSIFICATION_TYPE":"U","ECCENTRICITY":"0.00003860","CENTER_NAME":"EARTH","TIME_SYSTEM":"UTC","MEAN_MOTION":"15.06388839","SEMIMAJOR_AXIS":"6925.383","REF_FRAME":"TEME","RA_OF_ASC_NODE":"254.3036","PERIOD":"95.593","RCS_SIZE":"LARGE","MEAN_MOTION_DOT":"0.00000481","NORAD_CAT_ID":"46371","INCLINATION":"53.0546","ELEMENT_SET_NO":"999","REV_AT_EPOCH":"5420","DECAY_DATE":null,"LAUNCH_DATE":"2020-09-03","ARG_OF_PERICENTER":"34.4668","MEAN_ELEMENT_THEORY":"SGP4","OBJECT_NAME":"STARLINK-1688","BSTAR":"0.00005115400000"},{"LAUNCH_DATE":"2020-09-03","DECAY_DATE":null,"MEAN_ELEMENT_THEORY":"SGP4","OBJECT_NAME":"STARLINK-1689","BSTAR":"-0.00006045000000","ARG_OF_PERICENTER":"99.8340","INCLINATION":"53.0532","NORAD_CAT_ID":"46372","ELEMENT_SET_NO":"999","RCS_SIZE":"LARGE","MEAN_MOTION_DOT":"-0.00001181","REV_AT_EPOCH":"5393","CLASSIFICATION_TYPE":"U","MEAN_MOTION":"15.06397286","TIME_SYSTEM":"UTC","ECCENTRICITY":"0.00006350","CENTER_NAME":"EARTH","GP_ID":"183185652","RA_OF_ASC_NODE":"273.9604","PERIOD":"95.592","REF_FRAME":"TEME","SEMIMAJOR_AXIS":"6925.357","PERIAPSIS":"546.782","OBJECT_ID":"2020-062AZ","FILE":"3100831","APOAPSIS":"547.662","TLE_LINE2":"2 46372  53.0532 273.9604 0000635  99.8340 260.2721 15.06397286 53937","EPHEMERIS_TYPE":"0","MEAN_ANOMALY":"260.2721","MEAN_MOTION_DDOT":"0.0000000000000","OBJECT_TYPE":"PAYLOAD","SITE":"AFETR","TLE_LINE1":"1 46372U 20062AZ  21233.50832223 -.00001181  00000-0 -60450-4 0  9990","EPOCH":"2021-08-21T12:11:59.040672","COUNTRY_CODE":"US"},{"LAUNCH_DATE":"2020-09-03","DECAY_DATE":null,"OBJECT_NAME":"STARLINK-1711","BSTAR":"0.00006539700000","MEAN_ELEMENT_THEORY":"SGP4","ARG_OF_PERICENTER":"162.1462","ELEMENT_SET_NO":"999","INCLINATION":"53.0542","NORAD_CAT_ID":"46374","RCS_SIZE":"LARGE","MEAN_MOTION_DOT":"0.00000691","REV_AT_EPOCH":"5488","TIME_SYSTEM":"UTC","MEAN_MOTION":"15.06405198","ECCENTRICITY":"0.00058300","CENTER_NAME":"EARTH","CLASSIFICATION_TYPE":"U","GP_ID":"183186903","RA_OF_ASC_NODE":"204.7883","PERIOD":"95.592","REF_FRAME":"TEME","SEMIMAJOR_AXIS":"6925.333","OBJECT_ID":"2020-062BB","FILE":"3100831","APOAPSIS":"551.235","PERIAPSIS":"543.160","MEAN_ANOMALY":"197.9733","TLE_LINE2":"2 46374  53.0542 204.7883 0005830 162.1462 197.9733 15.06405198 54888","EPHEMERIS_TYPE":"0","SITE":"AFETR","OBJECT_TYPE":"PAYLOAD","MEAN_MOTION_DDOT":"0.0000000000000","COUNTRY_CODE":"US","EPOCH":"2021-08-21T07:45:15.147936","TLE_LINE1":"1 46374U 20062BB  21233.32309199  .00000691  00000-0  65397-4 0  9991"},{"REF_FRAME":"TEME","SEMIMAJOR_AXIS":"6925.340","RA_OF_ASC_NODE":"229.4224","PERIOD":"95.592","GP_ID":"183186654","MEAN_MOTION":"15.06402829","TIME_SYSTEM":"UTC","ECCENTRICITY":"0.00007630","CENTER_NAME":"EARTH","CLASSIFICATION_TYPE":"U","COUNTRY_CODE":"US","TLE_LINE1":"1 46375U 20062BC  21233.40374551  .00000475  00000-0  50765-4 0  9998","EPOCH":"2021-08-21T09:41:23.612064","SITE":"AFETR","OBJECT_TYPE":"PAYLOAD","MEAN_MOTION_DDOT":"0.0000000000000","MEAN_ANOMALY":"303.1710","TLE_LINE2":"2 46375  53.0552 229.4224 0000763  56.9352 303.1710 15.06402829 54548","EPHEMERIS_TYPE":"0","OBJECT_ID":"2020-062BC","FILE":"3100831","APOAPSIS":"547.733","PERIAPSIS":"546.676","ARG_OF_PERICENTER":"56.9352","BSTAR":"0.00005076500000","OBJECT_NAME":"STARLINK-1724","MEAN_ELEMENT_THEORY":"SGP4","DECAY_DATE":null,"LAUNCH_DATE":"2020-09-03","REV_AT_EPOCH":"5454","MEAN_MOTION_DOT":"0.00000475","RCS_SIZE":"LARGE","ELEMENT_SET_NO":"999","INCLINATION":"53.0552","NORAD_CAT_ID":"46375"},{"SEMIMAJOR_AXIS":"6925.372","REF_FRAME":"TEME","RA_OF_ASC_NODE":"229.6630","PERIOD":"95.593","GP_ID":"183185402","CLASSIFICATION_TYPE":"U","ECCENTRICITY":"0.00012480","CENTER_NAME":"EARTH","MEAN_MOTION":"15.06392282","TIME_SYSTEM":"UTC","TLE_LINE1":"1 46376U 20062BD  21233.35213467 -.00001349  00000-0 -71710-4 0  9997","EPOCH":"2021-08-21T08:27:04.435488","COUNTRY_CODE":"US","MEAN_MOTION_DDOT":"0.0000000000000","SITE":"AFETR","OBJECT_TYPE":"PAYLOAD","EPHEMERIS_TYPE":"0","TLE_LINE2":"2 46376  53.0545 229.6630 0001248  67.5325 292.5796 15.06392282 54536","MEAN_ANOMALY":"292.5796","PERIAPSIS":"546.373","FILE":"3100831","APOAPSIS":"548.101","OBJECT_ID":"2020-062BD","ARG_OF_PERICENTER":"67.5325","MEAN_ELEMENT_THEORY":"SGP4","BSTAR":"-0.00007171000000","OBJECT_NAME":"STARLINK-1742","DECAY_DATE":null,"LAUNCH_DATE":"2020-09-03","REV_AT_EPOCH":"5453","RCS_SIZE":"LARGE","MEAN_MOTION_DOT":"-0.00001349","NORAD_CAT_ID":"46376","INCLINATION":"53.0545","ELEMENT_SET_NO":"999"},{"SEMIMAJOR_AXIS":"6925.355","REF_FRAME":"TEME","PERIOD":"95.592","RA_OF_ASC_NODE":"229.0153","GP_ID":"183186152","CENTER_NAME":"EARTH","ECCENTRICITY":"0.00010030","MEAN_MOTION":"15.06397758","TIME_SYSTEM":"UTC","CLASSIFICATION_TYPE":"U","COUNTRY_CODE":"US","TLE_LINE1":"1 46378U 20062BF  21233.49588816 -.00001497  00000-0 -81639-4 0  9992","EPOCH":"2021-08-21T11:54:04.737024","SITE":"AFETR","OBJECT_TYPE":"PAYLOAD","MEAN_MOTION_DDOT":"0.0000000000000","MEAN_ANOMALY":"294.7533","EPHEMERIS_TYPE":"0","TLE_LINE2":"2 46378  53.0548 229.0153 0001003  65.3560 294.7533 15.06397758 54559","FILE":"3100831","APOAPSIS":"547.915","OBJECT_ID":"2020-062BF","PERIAPSIS":"546.526","ARG_OF_PERICENTER":"65.3560","BSTAR":"-0.00008163900000","OBJECT_NAME":"STARLINK-1751","MEAN_ELEMENT_THEORY":"SGP4","DECAY_DATE":null,"LAUNCH_DATE":"2020-09-03","REV_AT_EPOCH":"5455","RCS_SIZE":"LARGE","MEAN_MOTION_DOT":"-0.00001497","ELEMENT_SET_NO":"999","NORAD_CAT_ID":"46378","INCLINATION":"53.0548"},{"REV_AT_EPOCH":"5579","INCLINATION":"53.0342","NORAD_CAT_ID":"46379","ELEMENT_SET_NO":"999","MEAN_MOTION_DOT":"0.00062762","RCS_SIZE":"LARGE","MEAN_ELEMENT_THEORY":"SGP4","OBJECT_NAME":"STARLINK-1756","BSTAR":"0.00033394000000","ARG_OF_PERICENTER":"84.3437","LAUNCH_DATE":"2020-09-03","DECAY_DATE":null,"MEAN_MOTION_DDOT":"0.0000000000000","OBJECT_TYPE":"PAYLOAD","SITE":"AFETR","TLE_LINE1":"1 46379U 20062BG  21233.24022436  .00062762  00000-0  33394-3 0  9991","EPOCH":"2021-08-21T05:45:55.384704","COUNTRY_CODE":"US","PERIAPSIS":"325.838","OBJECT_ID":"2020-062BG","FILE":"3100831","APOAPSIS":"335.914","TLE_LINE2":"2 46379  53.0342 138.7390 0007510  84.3437 275.8440 15.79846920 55798","EPHEMERIS_TYPE":"0","MEAN_ANOMALY":"275.8440","PERIOD":"91.148","RA_OF_ASC_NODE":"138.7390","REF_FRAME":"TEME","SEMIMAJOR_AXIS":"6709.011","CLASSIFICATION_TYPE":"U","MEAN_MOTION":"15.79846920","TIME_SYSTEM":"UTC","ECCENTRICITY":"0.00075100","CENTER_NAME":"EARTH","GP_ID":"183186404"},{"RA_OF_ASC_NODE":"254.2179","PERIOD":"95.592","REF_FRAME":"TEME","SEMIMAJOR_AXIS":"6925.343","MEAN_MOTION":"15.06401919","TIME_SYSTEM":"UTC","ECCENTRICITY":"0.00010560","CENTER_NAME":"EARTH","CLASSIFICATION_TYPE":"U","GP_ID":"183187154","OBJECT_TYPE":"PAYLOAD","SITE":"AFETR","MEAN_MOTION_DDOT":"0.0000000000000","COUNTRY_CODE":"US","EPOCH":"2021-08-21T10:49:44.498208","TLE_LINE1":"1 46380U 20062BH  21233.45120947  .00000567  00000-0  56964-4 0  9996","OBJECT_ID":"2020-062BH","FILE":"3100831","APOAPSIS":"547.939","PERIAPSIS":"546.476","MEAN_ANOMALY":"289.5351","TLE_LINE2":"2 46380  53.0521 254.2179 0001056  70.5752 289.5351 15.06401919 54207","EPHEMERIS_TYPE":"0","OBJECT_NAME":"STARLINK-1758","BSTAR":"0.00005696400000","MEAN_ELEMENT_THEORY":"SGP4","ARG_OF_PERICENTER":"70.5752","LAUNCH_DATE":"2020-09-03","DECAY_DATE":null,"REV_AT_EPOCH":"5420","ELEMENT_SET_NO":"999","INCLINATION":"53.0521","NORAD_CAT_ID":"46380","RCS_SIZE":"LARGE","MEAN_MOTION_DOT":"0.00000567"},{"REV_AT_EPOCH":"5519","RCS_SIZE":"LARGE","MEAN_MOTION_DOT":"0.00365334","INCLINATION":"53.0499","NORAD_CAT_ID":"46381","ELEMENT_SET_NO":"999","ARG_OF_PERICENTER":"65.5931","MEAN_ELEMENT_THEORY":"SGP4","OBJECT_NAME":"STARLINK-1768","BSTAR":"0.00161570000000","DECAY_DATE":null,"LAUNCH_DATE":"2020-09-03","EPOCH":"2021-08-21T09:54:41.376960","TLE_LINE1":"1 46381U 20062BJ  21233.41297890  .00365334  00000-0  16157-2 0  9999","COUNTRY_CODE":"US","MEAN_MOTION_DDOT":"0.0000000000000","OBJECT_TYPE":"PAYLOAD","SITE":"AFETR","TLE_LINE2":"2 46381  53.0499 184.1631 0000875  65.5931 294.5182 15.82923809 55195","EPHEMERIS_TYPE":"0","MEAN_ANOMALY":"294.5182","PERIAPSIS":"321.593","OBJECT_ID":"2020-062BJ","FILE":"3100831","APOAPSIS":"322.765","REF_FRAME":"TEME","SEMIMAJOR_AXIS":"6700.314","PERIOD":"90.971","RA_OF_ASC_NODE":"184.1631","GP_ID":"183185902","CLASSIFICATION_TYPE":"U","MEAN_MOTION":"15.82923809","TIME_SYSTEM":"UTC","CENTER_NAME":"EARTH","ECCENTRICITY":"0.00008750"}];
